Origin Time       2011/03/11 14:46:00
Lat.              38.103
Long.             142.860
Depth. (km)       24
Mag.              9.0
Station Code      TKYH12
Station Lat.      35.6701
Station Long.     139.265
Station Height(m) 210
Record Time       2011/03/11 14:47:28
Sampling Freq(Hz) 100Hz
Duration Time(s)  300
Dir.              5
Scale Factor      3920(gal)/6170801
Max. Acc. (gal)   105.914
Last Correction   2011/03/11 14:47:13
Memo.             
[...]
    -288    18211    35346    47723    55821    62112    66830    68489 
   65440    57523    47173    37180    28471    20943    14712    10110 
    7281     5522     3050    -1931    -9726   -18180   -24653   -30376 
  -38911   -49931   -59941   -66961   -70379   -68849   -60052   -42896 
  -20543      826    17000    28206    36503    42424    44915    42582 
   34766    21858     5289   -10821   -22623   -33003   -46921   -61370 
  -68852   -67993   -63750   -59151   -52451   -43320   -35185   -28410 
  -18795    -3927    14016    30331    41124    45987    48811    53780 
   59030    58350    49814    38976    32443    30642    27893    18617 
    3130   -12899   -23630   -27513   -26808   -23737   -21091   -22946 
  -29511   -37660   -47791   -61137   -73459   -79742   -80488   -79557 
  -79179   -78684   -77003   -72428   -59452   -33146     1989    35565 
   61985    79582    87195    87603    84659    78374    69469    62071 
   59299    60376    60469    54453    42823    29307    15668     3971 
   -3060    -6440    -9368   -12308   -12877    -9787    -6596    -8018 
  -12355   -14603   -14907   -16912   -21038   -24787   -27759   -32479 
  -39643   -44867   -42080   -30792   -19368   -17657   -26403   -38932 
  -51179   -62154   -67872   -64025   -51065   -31634    -8941    11066 
   22658    24969    21020    16055    15290    18887    22432    22320 
   17219     8601     2598     4570    11045    14569    13766    11774 
   10066     9326    11503    17368    24522    28410    24581    12039 
   -4302   -17058   -23378   -25569   -26277   -27081   -29341   -33899 
  -41360   -51860   -63780   -74094   -80057   -80118   -73440   -59464 
  -40239   -22308   -10562    -1685     9308    20539    27013    26467 
   19462     9295      259    -6585   -11473   -11702    -5613     2415 
    5954     4060     1714     3277     8748    14350    14116     5902 
   -3722    -5928      641    10227    18429    26770    36808    43562 
   40134    25931     6252   -12360   -24397   -28121   -26745   -24055 
  -20829   -17179   -14844   -13380    -7977     3325    15462    23599 
   28580    33095    36673    36348    30269    19128     5507    -7448 
  -17726   -26509   -37554   -52289   -67579   -78672   -83039   -80953 
  -72552   -58352   -39797   -16761     9066    31961    47126    52626 
   48030    34893    17478     -440   -19732   -43255   -70194   -94514 
 -107902  -105091   -85234   -50253    -6767    35544    69151    86684 
   83513    68106    54748    46810    40368    33278    22556     5600 
  -14841   -32874   -44888   -50758   -50794   -45885   -38129   -27798 
  -13464     4925    24889    45012    67128    89527   105394   111645 
  109916   101536    88397    72380    53234    30859     5129   -24022 
  -52456   -72901   -81482   -81943   -82550   -87889   -96275  -104023 
 -106351   -98198   -80826   -61618   -45517   -31708   -16769     1233 
   20760    38256    51085    57705    56160    46115    29461     8205 
  -13103   -27632   -32628   -29671   -20664    -9501    -3060    -5515 
  -15280   -28723   -42588   -53048   -57811   -58288   -56311   -52315 
  -43155   -23193     2447    20454    27264    25991    20199    15422 
   11521     3854    -7856   -21208   -34093   -43817   -46055   -38559 
  -25941   -13532     -767    13070    21985    18384     4619    -8578 
  -16742   -24476   -34762   -45270   -53010   -57260   -59088   -60875 
  -64018   -64826   -57675   -41759   -22650    -7760     2619    14480 
   28931    40653    46043    47017    46920    44988    36801    19763 
   -2689   -23179   -36904   -42993   -41715   -34623   -23988   -11303 
    2220    14504    22130    22965    18593    12434     7844     7301 
   10642    13695    11181     4441     2158    10457    26999    45755 
   62782    73890    71791    52403    21446    -7556   -21628   -19152 
  -10657    -6903   -12439   -25285   -38123   -47129   -56589   -70166 
  -83748   -90320   -85933   -70909   -51544   -35102   -21725    -8556 
    4590    18226    32943    45335    50482    47965    42579    39566 
   39474    37797    31290    22311    12871      352   -16288   -33573 
  -48608   -61740   -73393   -80843   -80635   -72438   -59583   -47881 
  -41317   -38872   -38702   -41691   -48477   -56714   -62374   -61621 
  -50693   -27810     2478    31439    53116    66849    75866    84266 
   92080    94324    87991    78479    76205    84846    97297   105805 
  106230    95839    77186    55121    28861    -2383   -32173   -54355 
  -68936   -76666   -78538   -77657   -75907   -74110   -73442   -75975 
  -84026   -94560   -99112   -91656   -72049   -43788   -12806    12959 
   27846    33419    36774    42579    48313    49813    47278    42870 
   37489    32393    31315    36375    43650    47067    43956    37186 
   30828    23719    13117     -911   -18275   -38500   -57772   -70052 
  -70786   -60146   -43296   -27553   -17459   -11675    -7693    -6282 
   -7526    -8353    -6606    -4889    -8879   -21948   -41538   -59684 
  -69167   -66874   -51363   -27936    -9929    -4930    -9405   -19254 
  -35226   -55104   -69755   -72613   -66530   -57818   -48338   -37206 
  -25855   -15119    -3097     9584    18858    22460    23583    28564 
   38938    48424    49218    39093    23530    11549     8525    13031 
   20050    25806    29487    30753    26390    13755    -2347   -13117 
  -16390   -17046   -18051   -18367   -16248    -9704     1093    12626 
   21528    24108    16399      211   -17011   -30485   -41705   -53046 
  -61572   -62926   -58374   -49904   -35516   -16832    -1534     5504 
    5297     -294    -8671   -14620   -15910   -16453   -18964   -19543 
  -13425    -2691     5196     5690     1211    -4117    -8688   -11188 
  -12323   -16795   -26434   -36620   -42629   -44477   -44698   -43903 
  -40426   -34127   -27985   -25533   -27134   -29165   -27482   -20594 
   -9001     7526    28472    48020    58888    59989    54452    44860 
   32519    16763    -2080   -19108   -29229   -32282   -31335   -28450 
  -24125   -19220   -13587    -4475    10541    30630    51810    68704 
   76533    73307    62968    52853    44544    33894    19662     3962 
  -12442   -28193   -38396   -39763   -35228   -30260   -27738   -26820 
  -25287   -20864   -11108     2961    14224    15103     6668    -1497 
   -2290     3361    10557    14111    12496     9956    11094    15267 
   18109    17371    15922    17685    22187    25277    23042    13897 
   -1114   -19791   -38695   -51580   -52587   -41645   -24830    -8893 
    3020     9882    10980     6101    -2128    -7337    -5076     3130 
   10517     9947     1081   -11950   -25631   -36881   -45388   -52188 
  -55648   -55017   -52841   -49745   -40641   -22722    -3479     8232 
   12589    14968    17800    18426    13516     3524    -9478   -24691 
  -39347   -47975   -48326   -43345   -36047   -26634   -15826    -5263 
    6660    22434    40152    55653    66478    72409    75196    76963 
   76515    70095    57039    38936    17644    -1623   -14262   -22549 
  -32853   -49447   -70177   -86310   -90910   -86823   -80598   -73229 
  -62405   -48010   -32445   -19029    -9418    -2477     2555     5558 
    7150     7157     5181     2131    -2546   -11571   -24287   -35647 
  -44175   -52601   -58946   -56350   -42859   -25253   -11743    -5224 
   -3192     -252     8877    25643    44856    59708    69968    79886 
   89911    94930    89741    73963    51806    28098     6489    -8879 
  -16158   -19097   -21776   -24536   -26662   -28056   -29107   -29717 
  -27586   -19976    -8508      789     3980     2807      534    -3119 
  -10627   -21082   -29990   -34372   -34690   -32609   -27514   -17177 
   -3549     6876    10365     9888     9557     7713      -80   -13242 
  -26876   -37769   -43740   -40916   -29580   -18233   -14207   -13827 
   -7405     7115    22691    35621    47861    60132    73027    86115 
   94307    93309    83295    66220    44792    23114     5439    -7978 
  -19157   -25760   -23596   -13751    -3417     -428    -6366   -18321 
  -33802   -48968   -60656   -69574   -76328   -80116   -80133   -74045 
  -60334   -44261   -33649   -29136   -27098   -25981   -24379   -20236 
  -12945    -4616     1897     6924    12652    19993    26587    27077 
   19783     8348    -4164   -15770   -23217   -24637   -22758   -21665 
  -22828   -26494   -31808   -36852   -40942   -42836   -39537   -28407 
   -9107    14599    37841    58117    73097    80318    79858    73677 
   62352    46146    27440     6868   -17558   -45419   -72440   -93094 
 -104743  -109340  -110208  -108224  -103039   -95870   -86830   -73687 
  -56332   -38135   -21142    -4268    11425    22330    27595    27974 
   23145    13854     3486    -3467    -5054    -2561     3165    12042 
   21878    29483    34164    37136    39348    42089    46234    50630 
   54152    56709    56158    48802    34455    17154     1514    -9962 
  -17616   -22580   -24543   -24028   -24572   -28424   -32562   -31902 
  -24734   -15232    -9311    -8035    -8908   -10602   -14059   -21391 
  -33849   -50184   -66732   -79856   -87224   -87886   -83086   -74148 
  -61435   -46889   -33901   -24403   -17030    -8331     4216    21151 
   41437    61710    77809    87530    90004    85868    77020    64070 
   47740    30454    14856     4024     -492    -1667    -3383    -6640 
  -10765   -14949   -18175   -18539   -14980    -9269    -3907      157 
    3576     7794    13146    16086    10300    -5543   -25536   -44710 
  -61389   -72794   -77606   -79452   -82080   -85120   -86760   -86135 
  -83050   -78000   -71336   -63513   -56122   -49926   -43762   -37054 
  -31500   -29047   -30023   -33006   -33728   -27687   -16289    -5418 
    1737     5518     6202     4387     1908      -67    -1746    -3378 
   -3878    -1306     4733    12800    21961    31039    36172    33775 
   25068    14812     6824     2435     2403     7814    16929    24287 
   26486    24389    19380    11645      681   -13317   -28302   -40890 
  -48497   -50376   -45734   -34788   -22309   -15772   -19041   -28721 
  -37069   -38603   -34289   -28670   -23361   -16743    -8900    -2242 
    2184     5047     6023     4799     3488     3980     5163     5782 
    5761     4299     1055    -3306    -9075   -16604   -24593   -31558 
  -36717   -38900   -37687   -34338   -29568   -22906   -14986    -7894 
   -2667     1526     5010     6421     5083     2451       13    -2411 
   -5334    -7620    -7939    -7508    -7384    -4898     3021    15439 
   28256    37767    42461    42411    39078    34812    30729    25864 
   18965    10624     2853    -3464    -9294   -15767   -22742   -28605 
  -31938   -32076   -27100   -15632     -892    11123    17129    17844 
   14738     8480     -493   -11707   -21851   -23872   -14166     2411 
   17672    26504    28745    27960    27598    28607    30619    32492 
   32440    29058    21548    10503    -1658   -12553   -21042   -26900 
  -31206   -35817   -39557   -39109   -36635   -38288   -44671   -50482 
  -51935   -50356   -48803   -47850   -47015   -47422   -50465   -55479 
  -59687   -60348   -56365   -47278   -32078   -11291    11180    31716 
   49975    66725    81955    94748   103460   106389   102422    91741 
   76344    58519    38461    15602    -8435   -30557   -47617   -57236 
  -59814   -57909   -53991   -50122   -46937   -42778   -36204   -29121 
  -25417   -26912   -31844   -35991   -36180   -33315   -29988   -26776 
  -23066   -19661   -17053   -12444    -2900    10260    22180    28782 
   30922    33720    40731    49307    54296    54964    54728    56527 
   60784    66289    70644    70916    65817    55076    38543    18498 
    -614   -15610   -26621   -36033   -45201   -53075   -58092   -60196 
  -60520   -58514   -51239   -37269   -18521     1853    20486    34858 
   44505    48860    46423    37491    23799     6915   -11406   -30417 
  -50158   -68630   -81574   -86012   -82858   -75649   -69264   -67415 
  -68412   -66914   -59450   -46941   -34743   -29024   -30091   -31541 
  -28348   -22415   -18791   -20327   -26252   -34158   -42607   -50589 
  -56218   -58108   -57167   -55262   -52948   -49739   -44682   -37766 
  -31968   -30025   -30708   -31595   -32431   -34068   -36109   -37713 
  -39512   -41932   -43861   -44553   -44009   -41922   -38513   -35807 
  -35928   -38268   -41369   -45592   -50785   -54770   -54607   -48339 
  -37049   -23229    -7282    11823    34232    58597    82143   101853 
  116465   126410   132883   137921   142821   146429   147927   149177 
  150805   149713   143107   130685   112814    90713    67162    44916 
   26207    13600     8799    10888    16626    22160    25272    25658 
   22942    16867     9094     2212    -2782    -6222    -7699    -6983 
   -6807   -11381   -21114   -31536   -38024   -39079   -35919   -30931 
  -26490   -24691   -26610   -31141   -35895   -39248   -40289   -38090 
  -32168   -22440    -9174     6400    22155    35612    44466    47119 
   43153    33700    20698     5759    -9921   -25367   -39420   -50964 
  -58696   -60153   -54097   -42333   -28241   -16235    -9387    -6750 
   -6274    -8496   -15162   -25830   -36918   -44784   -49651   -53725 
  -57082   -58612   -57931   -55345   -51153   -43777   -31514   -17579 
   -9230   -11161   -21635   -34540   -43605   -45977   -44049   -42101 
  -41775   -43026   -45334   -46754   -45675   -43144   -41810   -42921 
  -44593   -43653   -38951   -30720   -18146    -1388    17224    36840 
   58965    83952   109482   132729   151382   161805   160272   148270 
  132689   118841   106661    93663    78582    61933    44211    25599 
    7590    -7557   -18944   -27045   -31863   -32978   -31878   -31838 
  -34147   -37086   -40393   -46478   -55473   -63985   -68594   -67773 
  -63091   -58815   -57432   -57757   -58260   -58217   -56619   -52881 
  -46409   -36109   -23193   -11817    -4634     -489     2120     2561 
    -333    -6626   -14924   -23223   -29733   -32872   -32966   -32566 
  -32805   -33236   -34608   -36283   -34028   -25307   -13396    -3627 
    1927     4679     6395     7910    10022    13137    15747    15284 
   11035     5129      911      -78      191     -683    -2402    -4055 
   -6522   -11659   -19967   -28681   -34436   -37320   -38882   -39025 
  -37335   -35130   -33995   -32190   -25484   -11836     6525    24193 
   36566    43623    46802    45507    40953    37435    36963    37519 
   36527    33674    30131    25541    18668    10234     1826    -6504 
  -16200   -27827   -39083   -46885   -50782   -52242   -51765   -48800 
  -43020   -33764   -20488    -5072     8421    16397    17445    12692 
    4687    -4204   -11688   -15355   -13811    -6703     5424    20155 
   34824    48770    61666    72695    82375    91417    97618    97102 
   88652    74363    56773    37324    17254    -1616   -17826   -30456 
  -38657   -42932   -45261   -46365   -44587   -38807   -30782   -23074 
  -16313    -9596    -2883     1667     1843    -1207    -3358    -2268 
     438     2672     3880     4112     3498     1625    -2208    -7952 
  -14459   -21108   -28301   -34921   -39336   -42128   -44625   -47018 
  -48566   -48653   -47650   -46630   -46538   -47709   -49767   -51826 
  -53686   -56244   -58627   -58210   -54668   -49229   -42317   -34661 
  -26249   -15411    -2604     8414    14446    14948    11901     8747 
    7639     8502     9698     8184     2552    -5520   -14982   -25030 
  -32640   -34795   -30338   -19708    -4630    11464    24325    32751 
   38078    40533    41080    42305    44582    45737    44470    41059 
   36535    33457    33819    36237    39076    43376    50505    59062 
   65312    66848    63609    55690    44279    32945    24371    17978 
   12134     6631     2011    -2433    -7406   -11129   -11608    -9551 
   -6998    -5910    -7851   -12753   -18769   -24159   -29004   -33879 
  -37549   -38312   -36076   -31362   -24385   -15913    -7748    -2400 
   -1581    -3830    -5627    -5252    -2901     1223     6368    10437 
   10987     6923     -524    -8232   -12961   -14292   -15778   -21064 
  -29725   -38406   -44671   -48587   -50704   -49992   -44663   -34064 
  -20107    -6985     1848     6326     8334     8919     9000    10170 
   12785    15304    16122    15422    13837    10265     3708    -5403 
  -16369   -27782   -37401   -43599   -45945   -45208   -43492   -43000 
  -43792   -43511   -39213   -29810   -17055    -3483     9359    20829 
   31127    39556    43083    39966    32522    24106    16653    10758 
    5326    -1581   -10009   -17574   -22315   -23827   -22458   -20059 
  -19093   -20137   -22179   -23988   -24837   -25387   -26546   -27026 
  -24507   -19353   -14577   -11597    -9303    -7433    -6642    -6556 
   -6622    -6410    -4198     2022    10959    18155    20151    16763 
   11447     8221     6825     4450     1049     -419     1484     4699 
    6010     3668     -254    -1807     -258     2738     6261     9426 
   10753     9216     4573    -2394    -9917   -17274   -25048   -32716 
  -39029   -44010   -47749   -48474   -44760   -37868   -28397   -14634 
    2436    17335    24032    20485    10385     -906   -10796   -19393 
  -27550   -35097   -39552   -37312   -27894   -14704    -2465     5049 
    7936     9485    13174    20665    29798    36648    38829    35937 
   30651    27322    27335    28997    30709    31664    31110    28488 
   24029    18308    12439     8196     5399     2137    -2043    -6165 
   -8862    -8625    -5125     -655     1952     3499     5882     6875 
    4066     -405    -3974    -7666   -13445   -20670   -26763   -30183 
  -31860   -32680   -31372   -27656   -23031   -17289    -9234      674 
   10617    18387    22440    23155    21680    18146    13529    10966 
   12027    13493    10888     4279    -2308    -5955    -7130    -7962 
   -9534   -11235   -11302    -7808     -879     6871    12862    16110 
   15915    11285     2291    -9470   -21106   -29979   -35924   -40209 
  -43420   -44714   -41925   -34158   -23877   -14395    -6557      453 
    6419    10349    11825    10954     8501     5129      379    -6067 
  -12720   -16699   -16723   -14737   -12697   -10596    -8872    -9243 
  -12797   -19061   -26655   -33612   -37794   -38700   -37733   -35966 
  -32595   -26127   -17020    -7800     -534     4623     8637    12341 
   15683    17973    19577    21588    23764    25754    28771    33731 
   39351    43210    43739    40661    34338    25340    15120     6783 
    3071     3597     6183    10123    16036    23492    30782    36467 
   39823    40637    39241    36393    32710    27175    17672     4023 
  -11528   -25986   -36690   -42596   -45008   -46067   -46656   -46486 
  -44687   -39800   -31943   -24491   -21069   -21575   -22947   -23125 
  -22271   -21422   -21698   -23101   -23756   -21786   -17519   -12889 
   -9196    -6652    -5354    -5500    -7058    -9325   -11226   -12686 
  -14218   -14878   -13238   -10091    -7789    -7732    -9601   -11966 
  -13092   -12016    -9232    -5706    -1232     4910    12304    20286 
   28503    35654    40044    40409    36152    28471    19699    11522 
    4724     -540    -3891    -4481    -2144     2399     8104    13809 
   18331    20658    20010    15976     8895     -725   -12431   -24703 
  -35078   -42063   -46217   -48309   -47618   -43515   -36998   -30130 
