Origin Time       2011/03/11 14:46:00
Lat.              38.103
Long.             142.860
Depth. (km)       24
Mag.              9.0
Station Code      TKYH12
Station Lat.      35.6701
Station Long.     139.265
Station Height(m) 210
Record Time       2011/03/11 14:47:28
Sampling Freq(Hz) 100Hz
Duration Time(s)  300
Dir.              6
Scale Factor      3920(gal)/6170801
Max. Acc. (gal)   65.459
Last Correction   2011/03/11 14:47:13
Memo.             
[...]
  -49369   -60161   -62201   -54215   -41281   -31593   -29448   -34554 
  -42142   -46251   -44255   -37073   -27995   -21139   -19101   -20855 
  -24850   -32327   -41460   -46065   -44517   -40681   -37818   -38208 
  -42797   -48133   -49347   -45579   -39087   -32547   -28514   -27719 
  -29014   -31515   -33683   -34430   -35190   -35575   -34478   -34357 
  -36986   -41742   -45903   -46210   -44180   -42949   -43052   -43863 
  -44301   -44195   -43410   -41644   -40866   -43334   -47628   -48391 
  -42077   -30984   -18558    -7433    -2641    -9276   -26517   -46852 
  -62367   -68634   -63098   -47762   -30318   -18366   -15333   -18254 
  -23789   -34840   -49026   -55645   -52167   -45410   -40507   -39782 
  -44399   -52850   -61314   -65875   -63426   -54201   -43877   -36870 
  -32069   -28972   -27316   -24021   -19952   -19775   -23849   -29246 
  -34156   -38134   -41531   -45288   -48939   -49473   -47156   -47389 
  -52714   -60026   -63725   -59776   -49953   -39038   -30065   -25377 
  -26517   -30024   -28272   -19374   -11797   -13647   -22670   -31690 
  -37888   -42074   -43808   -40436   -31436   -21790   -15795   -12647 
  -12212   -16730   -26605   -40281   -53733   -59688   -54364   -41795 
  -29193   -21799   -21187   -26758   -35630   -41711   -40735   -34280 
  -27121   -24831   -31071   -42351   -49708   -48252   -41547   -36369 
  -36006   -39485   -44958   -50814   -54635   -54503   -49910   -41866 
  -35968   -39255   -51125   -64003   -69528   -63336   -50521   -40619 
  -35490   -30980   -26918   -26734   -31033   -37035   -41520   -42717 
  -39626   -31382   -21031   -14775   -14714   -18447   -23478   -28127 
  -33320   -43051   -57361   -69252   -70979   -59358   -39067   -21497 
  -16087   -24000   -38825   -51993   -58236   -55269   -42509   -24345 
   -9509    -4354    -9797   -21690   -32097   -35436   -33917   -33487 
  -36792   -42218   -45670   -43956   -38635   -32073   -23912   -16843 
  -15569   -20268   -30266   -45232   -60252   -68717   -66803   -54770 
  -37306   -21328   -14306   -19326   -29250   -33558   -29382   -19673 
   -7369     3533     8161     4498    -4442   -12803   -19364   -27765 
  -38018   -47108   -55007   -61641   -62737   -55511   -44795   -38570 
  -39141   -42785   -47376   -54405   -61917   -62437   -53630   -41982 
  -31138   -21603   -18396   -24239   -34631   -42918   -44518   -38979 
  -26262    -7255     8768    11500     1374   -15806   -35285   -51964 
  -62089   -65367   -63420   -57936   -49421   -38649   -30030   -29347 
  -37320   -48755   -58114   -61803   -56151   -41734   -26192   -16576 
  -15820   -24864   -40322   -53209   -55843   -49500   -41366   -36198 
  -34239   -33579   -32921   -32680   -33149   -34858   -40270   -49575 
  -56778   -56628   -51104   -43748   -36725   -33282   -33858   -34646 
  -32450   -28064   -25239   -24888   -25365   -28403   -35412   -43746 
  -50928   -54382   -51301   -43428   -36047   -32953   -35137   -40389 
  -43701   -42381   -38805   -36738   -37395   -37885   -35497   -33376 
  -35435   -39741   -43566   -48786   -56882   -62419   -57520   -42242 
  -24933   -13620   -10953   -15427   -24508   -35759   -44640   -45151 
  -36378   -23306   -11943    -8422   -15673   -30324   -45933   -55322 
  -55556   -50078   -41729   -32506   -25618   -22195   -22535   -26477 
  -32162   -39367   -49356   -61896   -73831   -79604   -76091   -64214 
  -46668   -27967   -14675   -14399   -29709   -52955   -71212   -74093 
  -60679   -40347   -23450   -14648   -12926   -15073   -20497   -29404 
  -39805   -51012   -63858   -75831   -80690   -74005   -58249   -40165 
  -24399   -13429   -10803   -18694   -32696   -43479   -43680   -33546 
  -20995   -14311   -16141   -22864   -27618   -27385   -25339   -24726 
  -23885   -19311   -12900   -10760   -14632   -20375   -23883   -25958 
  -30554   -37476   -41063   -37709   -29693   -21656   -17563   -18411 
  -20262   -19829   -21096   -28666   -38792   -44277   -43329   -38951 
  -34175   -31130   -31611   -36521   -44602   -53320   -61370   -66887 
  -67296   -62688   -53615   -40454   -27000   -18674   -18099   -22784 
  -27760   -31439   -35167   -39876   -45937   -51944   -53994   -49104 
  -38380   -25912   -16881   -15467   -22045   -34823   -50968   -64472 
  -69373   -63886   -50560   -35377   -23983   -18632   -20308   -29959 
  -45310   -61256   -73768   -77789   -68082   -48499   -30508   -20415 
  -17164   -20803   -33104   -51073   -66847   -73226   -68835   -57293 
  -42453   -29042   -23032   -27085   -38776   -52582   -61367   -59205 
  -45873   -26628    -9043     -695    -4404   -15266   -26065   -33925 
  -39532   -43077   -42772   -37253   -28564   -20707   -18419   -25601 
  -40087   -55475   -66367   -68049   -59888   -48045   -39191   -35718 
  -35360   -33448   -29065   -25046   -21424   -15948    -8975    -4261 
   -6916   -17782   -30470   -38324   -40168   -38470   -37030   -39007 
  -45050   -54215   -63976   -69732   -70240   -68123   -61051   -47645 
  -37546   -36923   -39972   -43108   -46712   -47329   -41847   -32107 
  -22817   -18359   -19596   -24177   -31595   -42187   -50376   -50246 
  -44202   -36614   -28476   -20931   -17580   -22471   -33984   -44953 
  -50356   -48926   -40755   -28154   -15455    -6990    -6864   -16693 
  -32082   -45421   -52075   -53241   -52595   -50438   -44142   -33738 
  -25020   -24042   -28287   -30741   -29820   -28813   -31856   -41414 
  -54741   -64018   -62557   -51593   -38516   -30110   -31225   -43209 
  -61116   -75981   -77979   -62530   -37054   -15417    -6301   -10655 
  -25285   -43958   -59614   -68144   -67400   -56530   -39582   -25095 
  -19087   -19309   -19686   -19966   -23394   -28914   -34284   -39708 
  -46072   -52845   -56721   -55687   -52959   -53082   -55168   -54092 
  -49693   -47246   -49334   -52741   -51089   -42237   -31809   -24155 
  -17457   -12246   -13791   -23516   -35714   -43400   -44819   -43076 
  -39690   -32842   -23641   -16815   -15085   -20484   -33179   -46392 
  -52700   -50742   -44363   -40898   -45343   -54808   -61130   -58191 
  -47823   -38095   -35357   -39163   -43831   -44601   -41058   -35133 
  -28029   -18862    -8670    -3283    -8268   -23162   -40224   -51311 
  -54971   -50573   -36599   -20124   -11703   -14470   -27134   -45936 
  -65129   -80010   -86692   -84918   -77498   -64731   -48349   -37174 
  -39529   -52419   -64284   -66277   -56907   -40858   -26554   -18650 
  -14803   -12854   -13739   -16740   -16830   -10954    -5020    -5852 
  -11773   -18883   -26498   -33050   -36579   -36974   -34068   -29006 
  -25219   -25612   -29388   -32214   -32400   -32873   -36279   -42954 
  -50905   -54731   -49652   -38689   -27271   -16107    -7901    -6806 
  -11231   -17567   -23520   -27885   -31555   -34702   -36997   -42019 
  -52024   -63661   -74284   -82267   -84980   -82656   -78177   -73059 
  -66353   -57871   -50031   -43796   -37633   -33762   -38564   -52549 
  -67255   -75225   -75584   -70864   -64129   -54768   -39210   -19525 
   -2661     7113     7317    -4376   -23844   -40329   -48612   -52083 
  -53046   -50537   -44622   -37547   -33341   -36549   -47666   -58687 
  -60251   -52718   -43680   -38915   -38048   -37916   -38200   -39027 
  -38354   -36488   -35716   -34560   -30557   -25062   -20379   -17367 
  -14913   -11959   -10975   -12084   -10829    -9536   -16194   -31003 
  -47051   -57198   -57805   -54288   -56623   -67312   -79669   -85961 
  -84774   -78347   -66436   -50435   -38010   -36169   -43511   -52512 
  -58097   -59925   -55788   -43049   -27269   -16183   -10469    -9575 
  -13407   -19872   -29544   -40546   -45566   -44013   -41246   -38244 
  -34771   -33974   -37763   -43404   -49110   -57804   -67817   -71067 
  -67128   -62653   -58035   -51075   -45490   -44664   -47155   -51289 
  -54647   -53678   -50588   -48744   -43373   -31657   -19826   -14156 
  -17791   -29749   -42179   -47124   -44375   -39265   -34836   -29665 
  -22539   -14818   -10970   -14869   -22796   -29786   -37757   -46467 
  -50687   -50077   -48060   -46437   -46035   -46146   -44787   -39769 
  -30427   -22306   -21944   -26398   -30083   -34035   -40303   -47524 
  -52855   -54366   -51593   -42509   -25768    -6622     5136     1720 
  -15282   -36220   -55268   -69486   -73311   -65746   -53596   -46443 
  -48402   -54475   -58957   -59696   -57335   -55759   -55248   -51938 
  -45786   -38174   -27838   -14868    -3273       33   -10237   -30755 
  -50226   -57260   -48233   -31269   -18830   -15575   -19135   -28405 
  -42012   -54040   -60370   -63139   -63472   -57495   -43181   -26254 
  -16030   -16301   -24296   -35647   -43643   -40565   -26014    -9525 
   -3239   -11144   -26515   -40596   -50150   -56388   -57840   -52358 
  -48514   -57018   -72832   -83592   -85209   -78183   -63130   -45855 
  -35081   -33871   -37642   -39139   -35546   -29855   -24870   -19420 
  -12939    -9637   -12923   -21200   -31411   -39905   -44358   -47836 
  -52016   -52168   -47106   -42224   -39007   -34636   -31458   -36172 
  -50595   -66368   -71372   -64262   -54222   -46323   -40223   -36836 
  -34520   -28923   -22356   -22628   -31686   -43447   -51502   -52662 
  -44329   -26453    -5893     6942     4301   -13618   -37604   -57538 
  -68440   -69217   -59639   -40528   -18213    -2408      125   -13107 
  -37557   -61244   -73867   -73921   -67190   -60610   -56012   -51909 
  -49737   -51904   -55890   -56002   -50483   -42872   -38142   -40018 
  -47423   -55599   -61775   -64287   -61637   -55049   -47561   -41908 
  -40252   -44076   -51118   -53769   -45259   -28088   -14097   -11302 
  -14932   -20650   -31593   -44192   -49027   -45518   -40815   -39704 
  -41504   -44622   -49552   -56079   -62168   -64913   -60149   -47688 
  -34827   -26588   -20202   -11862    -3224    -1222   -10056   -25633 
  -40168   -49421   -53478   -51998   -44311   -35405   -34995   -46089 
  -60101   -66723   -62832   -52547   -42162   -35027   -33237   -38428 
  -46202   -47898   -40710   -31678   -29972   -37208   -47570   -53131 
  -48194   -33899   -16283     1577    18133    27930    25085     7402 
  -19220   -40080   -46484   -43851   -40963   -42509   -49495   -59904 
  -67551   -64019   -49462   -32557   -17845    -7269    -5661   -15971 
  -35370   -55274   -68256   -73236   -69063   -56085   -43639   -40615 
  -44204   -45529   -40625   -34075   -33199   -40418   -53158   -68129 
  -83037   -93551   -91531   -74059   -49349   -27275   -15800   -22029 
  -43581   -69217   -88335   -94849   -87760   -68206   -40172   -13527 
    1088       30    -9145   -15029   -16068   -16150   -14126   -10204 
  -10158   -19002   -37393   -59470   -74396   -76410   -71420   -67906 
  -66335   -64864   -65475   -67532   -65257   -55822   -42969   -31940 
  -27350   -33121   -47832   -61536   -61809   -45927   -22441      254 
   19331    33960    42102    40823    29846    12771    -5358   -18405 
  -21246   -17104   -15058   -18996   -29557   -47691   -66430   -73080 
  -63025   -42761   -23552   -14571   -16936   -24137   -29433   -29518 
  -21831    -7202     4954     4187    -9581   -29503   -49228   -60787 
  -56901   -40370   -23343   -15511   -17813   -29066   -48957   -68681 
  -73221   -61276   -48521   -45931   -48800   -49897   -50999   -56679 
  -66029   -76823   -89120   -99842  -101763   -91275   -73340   -55492 
  -40769   -32570   -37535   -53810   -67555   -67483   -53072   -31254 
  -10255     6176    14876    11202    -2191   -16693   -25787   -25453 
  -18519   -14975   -18627   -25767   -34399   -41942   -44795   -45748 
  -51415   -63298   -77353   -87343   -87897   -78085   -59723   -37937 
  -22160   -16752   -18447   -25101   -37029   -52782   -68741   -78008 
  -72147   -52057   -28287    -9358      998     5369     8881     8207 
     210    -8305   -11157    -8396    -4603    -6483   -13517   -18199 
  -17835   -16553   -18721   -23575   -27391   -30438   -33526   -34849 
  -36633   -43111   -55574   -72417   -86435   -90448   -85317   -74931 
  -60085   -41287   -23442   -11251    -2902     4710     9906     9367 
    2121   -11686   -29730   -45408   -53937   -55295   -50118   -41793 
  -35009   -29846   -28109   -35104   -50060   -67105   -81191   -88824 
  -88428   -80079   -65940   -51609   -44660   -48779   -59176   -67334 
  -69121   -65285   -56892   -43652   -26477   -10506    -1353       78 
   -4250   -10466   -14994   -17395   -16884   -12986    -7593    -1726 
    3052     3181    -1912   -10712   -25116   -45947   -67438   -82765 
  -88611   -86101   -83227   -86885   -92676   -92970   -87102   -76167 
  -58620   -36248   -16374    -6125    -7254   -14544   -17970    -8495 
   13503    35989    44327    30331    -2432   -40089   -71727   -94600 
 -105986  -102925   -87413   -66776   -50457   -43086   -43391   -50109 
  -59490   -64103   -63469   -63888   -67733   -72130   -71825   -63346 
  -48722   -32034   -15437     2271    20927    33349    34447    27823 
   17585     5241    -7999   -21035   -30460   -32425   -29431   -27639 
  -29370   -32958   -34425   -32715   -36803   -53965   -74572   -86852 
  -90616   -86595   -77142   -70101   -69043   -74915   -85375   -88575 
  -78270   -61209   -44077   -30238   -18652    -4753     7991    12169 
    8921     1889    -8297   -19459   -29928   -39275   -45000   -47002 
  -49045   -54313   -63488   -73393   -81741   -89615   -94254   -93703 
  -94081   -98573  -101691   -98475   -87452   -67217   -37287     -229 
   36269    60421    65032    51451    26179      135   -16628   -21641 
  -17929   -11688    -8324    -8562   -13008   -21169   -28075   -30761 
  -30733   -31176   -36007   -47329   -63684   -79256   -84732   -76102 
  -62562   -57475   -63334   -73142   -81008   -83850   -78748   -64673 
  -44381   -23849    -9629    -7013   -18546   -38207   -51984   -49065 
  -31725   -13313    -4084    -5565   -16007   -32493   -52908   -74199 
  -87776   -87534   -77274   -60335   -36890   -12875     6001    18000 
   18483     4819   -18714   -45291   -68025   -83251   -90346   -87292 
  -74181   -55796   -37497   -24739   -20990   -23936   -31749   -46833 
  -65663   -77971   -79597   -73324   -60791   -42288   -21188    -3544 
    6573     8465     4250    -2339    -8773   -12649   -11063    -4105 
    5032    10179     3395   -15578   -35809   -46539   -47247   -44305 
  -41876   -40370   -41112   -46533   -54149   -57602   -57082   -58169 
  -61460   -63737   -64030   -63065   -60486   -54788   -45844   -37533 
  -35460   -38223   -37387   -30927   -25356   -23019   -19232   -11833 
   -5602    -5569   -11492   -21255   -32419   -40943   -44565   -44022 
  -41302   -39365   -40279   -43139   -45007   -44838   -44773   -47724 
  -56451   -69460   -79089   -80916   -78728   -76981   -75944   -74954 
  -73748   -70409   -63567   -54450   -44936   -38130   -36560   -36481 
  -31917   -23769   -17552   -16246   -19677   -25480   -29812   -29897 
  -26545   -23987   -23205   -20628   -17828   -21665   -32440   -39701 
  -35055   -23598   -13564    -7697   -11376   -29378   -53972   -71920 
  -77755   -73696   -64399   -53557   -44009   -40095   -44189   -50969 
  -51571   -44509   -36712   -34466   -38054   -40808   -35274   -22830 
   -8784     6035    20563    29218    26702    13224    -6459   -27101 
  -43628   -50345   -45370   -34247   -23548   -17288   -20413   -32792 
  -45290   -51225   -52788   -55017   -60344   -68057   -75257   -76698 
  -66078   -41766   -12028    10370    20403    22319    21485    21577 
   24401    26249    20594     7125    -8772   -24076   -37665   -45721 
  -46202   -43572   -44163   -50558   -59864   -68043   -75899   -83909 
  -88349   -89413   -91305   -92376   -86125   -72740   -60680   -54592 
  -51106   -48577   -50034   -54045   -51643   -38387   -22297   -11267 
   -3605     2364     3517     -701    -7674   -15633   -21779   -23636 
  -22417   -19557   -15861   -14251   -17252   -24091   -32481   -40816 
  -47679   -51435   -52086   -52427   -56314   -64789   -73611   -77749 
  -76885   -73298   -69460   -66929   -63650   -56690   -46249   -36309 
  -32619   -36249   -43598   -51100   -53998   -48641   -36633   -22516 
  -11019    -6226   -10383   -20574   -29538   -34082   -37446   -44042 
  -56312   -72394   -86328   -93165   -91558   -82403   -67996   -52942 
  -43634   -42527   -44742   -43529   -36197   -24369   -11808    -1123 
    8370    15970    17433    11582       14   -16147   -32503   -43082 
  -46515   -45964   -42286   -33059   -21122   -12164    -6316    -1885 
   -1517    -9368   -22292   -31334   -34802   -38828   -46951   -56684 
  -64140   -69801   -73527   -70537   -62061   -53641   -42051   -23498 
   -5467     4119     7014     7856     8700     8138      946   -12967 
  -25139   -30728   -31739   -31123   -33271   -40198   -45240   -41824 
  -32606   -21527    -9968    -1678      770    -2574   -10805   -20842 
  -33183   -49487   -62440   -65595   -62438   -57173   -51141   -44224 
  -34791   -23893   -13854    -5685    -3952   -13477   -30388   -45835 
  -54578   -55912   -51630   -44919   -38101   -32568   -31024   -34193 
  -37829   -37560   -33168   -27831   -23548   -19478   -16867   -19345 
  -28713   -43508   -58636   -69725   -77501   -82747   -82581   -75155 
  -64381   -55843   -48347   -37843   -26168   -17222   -11838   -10034 
  -12117   -17260   -23120   -26073   -23851   -19862   -19154   -20930 
  -23013   -28059   -37460   -46327   -52099   -58903   -67643   -74247 
  -76919   -75919   -71987   -66720   -60750   -52920   -42669   -32693 
  -26055   -22517   -21746   -23825   -26029   -26392   -25601   -23783 
  -23022   -26615   -31444   -31473   -26278   -20120   -19488   -29132 
  -46573   -66162   -84334   -96290   -97057   -87986   -74805   -61737 
  -50873   -43919   -41602   -41477   -40665   -39117   -37102   -34449 
  -32033   -32076   -36168   -42280   -48065   -52806   -54696   -53591 
  -51521   -48206   -41589   -31285   -20776   -15575   -17873   -26812 
  -41298   -56878   -66389   -66973   -61055   -52542   -46266   -46701 
  -54127   -65253   -76013   -82380   -81212   -70293   -50691   -29698 
  -15564   -11367   -15157   -21232   -24720   -24874   -21272   -14316 
   -7047    -1490     1076     -321    -3057    -4081    -5532   -11153 
  -19869   -27329   -31824   -35538   -39331   -41050   -41918   -45830 
  -50690   -50864   -46988   -45725   -49354   -51760   -48920   -44348 
  -42450   -44561   -48828   -52529   -54110   -52298   -47215   -40205 
  -33187   -29745   -32349   -40242   -50302   -57164   -56674   -50667 
  -43994   -38715   -34909   -33374   -34587   -36987   -37891   -36564 
  -35658   -37477   -39331   -36656   -30142   -24900   -23193   -22602 
  -21385   -21327   -24157   -28734   -33002   -35840   -36802   -35984 
  -34562   -34123   -34221   -34682   -39962   -53015   -67787   -75800 
  -75799   -70897   -61596   -48111   -34428   -26079   -26589   -34928 
  -46581   -57747   -65900   -69390   -68344   -63240   -55216   -47124 
  -40437   -34190   -28139   -24405   -24607   -27442   -31156   -33802 
  -32073   -25352   -17512   -13021   -14084   -20389   -29742   -38761 
  -43485   -42258   -38308   -35551   -33720   -32230   -34435   -41823 
  -49021   -49374   -41037   -27179   -12802    -1719     3334      602 
   -9690   -24236   -36324   -40587   -37354   -30048   -22026   -15551 
